CCSDS_OMM_VERS = 2.0
CREATION_DATE  = 
ORIGINATOR     = 

OBJECT_NAME    = STARLINK-36527
OBJECT_ID      = 2026-020Q
CENTER_NAME    = EARTH
REF_FRAME      = TEME
TIME_SYSTEM    = UTC
MEAN_ELEMENT_THEORY = SGP/SGP4

EPOCH          = 2026-02-21T12:54:51.748416
MEAN_MOTION    = 15.82253684
ECCENTRICITY   = .00023944
INCLINATION    = 42.9978
RA_OF_ASC_NODE = 239.7330
ARG_OF_PERICENTER = 248.9246
MEAN_ANOMALY   = 111.1370

EPHEMERIS_TYPE = 0
CLASSIFICATION_TYPE = U
NORAD_CAT_ID   = 67631
ELEMENT_SET_NO = 999
REV_AT_EPOCH   = 354
BSTAR          = .17854803E-2
MEAN_MOTION_DOT = .397608E-2
MEAN_MOTION_DDOT = 0

CCSDS_OMM_VERS = 2.0
CREATION_DATE  = 
ORIGINATOR     = 

OBJECT_NAME    = STARLINK-36633
OBJECT_ID      = 2026-020R
CENTER_NAME    = EARTH
REF_FRAME      = TEME
TIME_SYSTEM    = UTC
MEAN_ELEMENT_THEORY = SGP/SGP4

EPOCH          = 2026-02-21T14:00:01.999872
MEAN_MOTION    = 15.76364883
ECCENTRICITY   = .00018668
INCLINATION    = 42.9993
RA_OF_ASC_NODE = 239.5807
ARG_OF_PERICENTER = 248.7808
MEAN_ANOMALY   = 319.8557

EPHEMERIS_TYPE = 0
CLASSIFICATION_TYPE = U
NORAD_CAT_ID   = 67632
ELEMENT_SET_NO = 999
REV_AT_EPOCH   = 480
BSTAR          = -.27888914E-3
MEAN_MOTION_DOT = -.45657E-3
MEAN_MOTION_DDOT = 0

CCSDS_OMM_VERS = 2.0
CREATION_DATE  = 
ORIGINATOR     = 

OBJECT_NAME    = STARLINK-36637
OBJECT_ID      = 2026-020S
CENTER_NAME    = EARTH
REF_FRAME      = TEME
TIME_SYSTEM    = UTC
MEAN_ELEMENT_THEORY = SGP/SGP4

EPOCH          = 2026-02-21T13:48:09.717408
MEAN_MOTION    = 15.76420587
ECCENTRICITY   = .00020248
INCLINATION    = 42.9980
RA_OF_ASC_NODE = 240.0351
ARG_OF_PERICENTER = 297.4283
MEAN_ANOMALY   = 62.6381

EPHEMERIS_TYPE = 0
CLASSIFICATION_TYPE = U
NORAD_CAT_ID   = 67633
ELEMENT_SET_NO = 999
REV_AT_EPOCH   = 354
BSTAR          = .21214848E-2
MEAN_MOTION_DOT = .360966E-2
MEAN_MOTION_DDOT = 0

CCSDS_OMM_VERS = 2.0
CREATION_DATE  = 
ORIGINATOR     = 

OBJECT_NAME    = STARLINK-36617
OBJECT_ID      = 2026-020T
CENTER_NAME    = EARTH
REF_FRAME      = TEME
TIME_SYSTEM    = UTC
MEAN_ELEMENT_THEORY = SGP/SGP4

EPOCH          = 2026-02-20T21:42:50.938272
MEAN_MOTION    = 15.82158698
ECCENTRICITY   = .0002439
INCLINATION    = 42.9994
RA_OF_ASC_NODE = 243.5856
ARG_OF_PERICENTER = 287.1807
MEAN_ANOMALY   = 72.8797

EPHEMERIS_TYPE = 0
CLASSIFICATION_TYPE = U
NORAD_CAT_ID   = 67634
ELEMENT_SET_NO = 999
REV_AT_EPOCH   = 344
BSTAR          = .1707E-2
MEAN_MOTION_DOT = .377542E-2
MEAN_MOTION_DDOT = 0

CCSDS_OMM_VERS = 2.0
CREATION_DATE  = 
ORIGINATOR     = 

OBJECT_NAME    = STARLINK-36627
OBJECT_ID      = 2026-020U
CENTER_NAME    = EARTH
REF_FRAME      = TEME
TIME_SYSTEM    = UTC
MEAN_ELEMENT_THEORY = SGP/SGP4

EPOCH          = 2026-02-21T13:38:42.291456
MEAN_MOTION    = 15.76594996
ECCENTRICITY   = .00026797
INCLINATION    = 42.9981
RA_OF_ASC_NODE = 239.9795
ARG_OF_PERICENTER = 249.1051
MEAN_ANOMALY   = 110.9532

EPHEMERIS_TYPE = 0
CLASSIFICATION_TYPE = U
NORAD_CAT_ID   = 67635
ELEMENT_SET_NO = 999
REV_AT_EPOCH   = 354
BSTAR          = .20394611E-2
MEAN_MOTION_DOT = .349191E-2
MEAN_MOTION_DDOT = 0

CCSDS_OMM_VERS = 2.0
CREATION_DATE  = 
ORIGINATOR     = 

OBJECT_NAME    = STARLINK-36624
OBJECT_ID      = 2026-020V
CENTER_NAME    = EARTH
REF_FRAME      = TEME
TIME_SYSTEM    = UTC
MEAN_ELEMENT_THEORY = SGP/SGP4

EPOCH          = 2026-02-21T14:00:01.999872
MEAN_MOTION    = 15.76331392
ECCENTRICITY   = .00015294
INCLINATION    = 42.9994
RA_OF_ASC_NODE = 239.6117
ARG_OF_PERICENTER = 263.1370
MEAN_ANOMALY   = 293.0669

EPHEMERIS_TYPE = 0
CLASSIFICATION_TYPE = U
NORAD_CAT_ID   = 67636
ELEMENT_SET_NO = 999
REV_AT_EPOCH   = 480
BSTAR          = .17827009E-3
MEAN_MOTION_DOT = .28595E-3
MEAN_MOTION_DDOT = 0

CCSDS_OMM_VERS = 2.0
CREATION_DATE  = 
ORIGINATOR     = 

OBJECT_NAME    = STARLINK-36610
OBJECT_ID      = 2026-020W
CENTER_NAME    = EARTH
REF_FRAME      = TEME
TIME_SYSTEM    = UTC
MEAN_ELEMENT_THEORY = SGP/SGP4

EPOCH          = 2026-02-21T13:41:51.445248
MEAN_MOTION    = 15.76397548
ECCENTRICITY   = .00018903
INCLINATION    = 42.9977
RA_OF_ASC_NODE = 239.9981
ARG_OF_PERICENTER = 278.2858
MEAN_ANOMALY   = 81.7797

EPHEMERIS_TYPE = 0
CLASSIFICATION_TYPE = U
NORAD_CAT_ID   = 67637
ELEMENT_SET_NO = 999
REV_AT_EPOCH   = 354
BSTAR          = .25169487E-2
MEAN_MOTION_DOT = .431542E-2
MEAN_MOTION_DDOT = 0

CCSDS_OMM_VERS = 2.0
CREATION_DATE  = 
ORIGINATOR     = 

OBJECT_NAME    = STARLINK-36599
OBJECT_ID      = 2026-020X
CENTER_NAME    = EARTH
REF_FRAME      = TEME
TIME_SYSTEM    = UTC
MEAN_ELEMENT_THEORY = SGP/SGP4

EPOCH          = 2026-02-21T14:16:53.043168
MEAN_MOTION    = 15.82028119
ECCENTRICITY   = .00030954
INCLINATION    = 42.9983
RA_OF_ASC_NODE = 239.2951
ARG_OF_PERICENTER = 287.9163
MEAN_ANOMALY   = 72.1371

EPHEMERIS_TYPE = 0
CLASSIFICATION_TYPE = U
NORAD_CAT_ID   = 67638
ELEMENT_SET_NO = 999
REV_AT_EPOCH   = 355
BSTAR          = .17085245E-2
MEAN_MOTION_DOT = .375504E-2
MEAN_MOTION_DDOT = 0

CCSDS_OMM_VERS = 2.0
CREATION_DATE  = 
ORIGINATOR     = 

OBJECT_NAME    = STARLINK-36595
OBJECT_ID      = 2026-020Y
CENTER_NAME    = EARTH
REF_FRAME      = TEME
TIME_SYSTEM    = UTC
MEAN_ELEMENT_THEORY = SGP/SGP4

EPOCH          = 2026-02-21T14:00:01.999872
MEAN_MOTION    = 15.76372598
ECCENTRICITY   = .00015684
INCLINATION    = 42.9990
RA_OF_ASC_NODE = 239.5178
ARG_OF_PERICENTER = 257.6680
MEAN_ANOMALY   = 335.8455

EPHEMERIS_TYPE = 0
CLASSIFICATION_TYPE = U
NORAD_CAT_ID   = 67639
ELEMENT_SET_NO = 999
REV_AT_EPOCH   = 480
BSTAR          = -.23977164E-3
MEAN_MOTION_DOT = -.39361E-3
MEAN_MOTION_DDOT = 0

CCSDS_OMM_VERS = 2.0
CREATION_DATE  = 
ORIGINATOR     = 

OBJECT_NAME    = STARLINK-36570
OBJECT_ID      = 2026-020Z
CENTER_NAME    = EARTH
REF_FRAME      = TEME
TIME_SYSTEM    = UTC
MEAN_ELEMENT_THEORY = SGP/SGP4

EPOCH          = 2026-02-21T13:32:24.032256
MEAN_MOTION    = 15.76409245
ECCENTRICITY   = .00027164
INCLINATION    = 42.9990
RA_OF_ASC_NODE = 239.9432
ARG_OF_PERICENTER = 317.3520
MEAN_ANOMALY   = 42.7139

EPHEMERIS_TYPE = 0
CLASSIFICATION_TYPE = U
NORAD_CAT_ID   = 67640
ELEMENT_SET_NO = 999
REV_AT_EPOCH   = 354
BSTAR          = .15635091E-2
MEAN_MOTION_DOT = .262674E-2
MEAN_MOTION_DDOT = 0

CCSDS_OMM_VERS = 2.0
CREATION_DATE  = 
ORIGINATOR     = 

OBJECT_NAME    = STARLINK-36514
OBJECT_ID      = 2026-020AA
CENTER_NAME    = EARTH
REF_FRAME      = TEME
TIME_SYSTEM    = UTC
MEAN_ELEMENT_THEORY = SGP/SGP4

EPOCH          = 2026-02-21T12:41:35.669184
MEAN_MOTION    = 15.81453551
ECCENTRICITY   = .00035609
INCLINATION    = 42.9993
RA_OF_ASC_NODE = 239.6571
ARG_OF_PERICENTER = 312.1344
MEAN_ANOMALY   = 47.9224

EPHEMERIS_TYPE = 0
CLASSIFICATION_TYPE = U
NORAD_CAT_ID   = 67641
ELEMENT_SET_NO = 999
REV_AT_EPOCH   = 354
BSTAR          = .15605833E-2
MEAN_MOTION_DOT = .332227E-2
MEAN_MOTION_DDOT = 0

CCSDS_OMM_VERS = 2.0
CREATION_DATE  = 
ORIGINATOR     = 

OBJECT_NAME    = STARLINK-36556
OBJECT_ID      = 2026-020AB
CENTER_NAME    = EARTH
REF_FRAME      = TEME
TIME_SYSTEM    = UTC
MEAN_ELEMENT_THEORY = SGP/SGP4

EPOCH          = 2026-02-21T13:16:37.613568
MEAN_MOTION    = 15.76642330
ECCENTRICITY   = .00023226
INCLINATION    = 42.9983
RA_OF_ASC_NODE = 239.8534
ARG_OF_PERICENTER = 232.1943
MEAN_ANOMALY   = 127.8717

EPHEMERIS_TYPE = 0
CLASSIFICATION_TYPE = U
NORAD_CAT_ID   = 67642
ELEMENT_SET_NO = 999
REV_AT_EPOCH   = 354
BSTAR          = .19064218E-2
MEAN_MOTION_DOT = .326162E-2
MEAN_MOTION_DDOT = 0

